[{"OBJECT_NAME":"IRIDIUM 140","OBJECT_ID":"2018-030D","EPOCH":"2026-03-09T17:10:03.364608","MEAN_MOTION":14.34217721,"ECCENTRICITY":0.00019229,"INCLINATION":86.4003,"RA_OF_ASC_NODE":332.0359,"ARG_OF_PERICENTER":85.7585,"MEAN_ANOMALY":274.3831,"EPHEMERIS_TYPE":0,"CLASSIFICATION_TYPE":"U","NORAD_CAT_ID":43252,"ELEMENT_SET_NO":999,"REV_AT_EPOCH":41593,"BSTAR":-8.82061e-7,"MEAN_MOTION_DOT":1.7e-7,"MEAN_MOTION_DDOT":0},{"OBJECT_NAME":"CZ-6A DEB","OBJECT_ID":"2024-140QW","EPOCH":"2026-03-09T13:47:44.573280","MEAN_MOTION":14.54036321,"ECCENTRICITY":0.0112561,"INCLINATION":89.0344,"RA_OF_ASC_NODE":285.0677,"ARG_OF_PERICENTER":252.5821,"MEAN_ANOMALY":106.3056,"EPHEMERIS_TYPE":0,"CLASSIFICATION_TYPE":"U","NORAD_CAT_ID":61152,"ELEMENT_SET_NO":999,"REV_AT_EPOCH":8199,"BSTAR":0.00034175,"MEAN_MOTION_DOT":1.584e-5,"MEAN_MOTION_DDOT":0}]
